[Satellite]
VERSION=1.1
NAME=COSMOS 1626
NICKNAME=COSMOS 1626
TLE1=1 15494U 85009A   15054.97244843  .00008170  00000-0  40062-3 0  9992
TLE2=2 15494  82.4836  12.0962 0004657 107.3389   6.7136 15.17972792640473
